[{"OBJECT_NAME":"SMOS","OBJECT_ID":"2009-059A","EPOCH":"2026-03-09T12:46:15.832416","MEAN_MOTION":14.39760281,"ECCENTRICITY":9.828e-5,"INCLINATION":98.4428,"RA_OF_ASC_NODE":257.3122,"ARG_OF_PERICENTER":82.3973,"MEAN_ANOMALY":277.7326,"EPHEMERIS_TYPE":0,"CLASSIFICATION_TYPE":"U","NORAD_CAT_ID":36036,"ELEMENT_SET_NO":999,"REV_AT_EPOCH":85911,"BSTAR":0.00013788061,"MEAN_MOTION_DOT":3.89e-6,"MEAN_MOTION_DDOT":0},{"OBJECT_NAME":"COSMOS 2251 DEB","OBJECT_ID":"1993-036J","EPOCH":"2026-03-09T11:22:57.048096","MEAN_MOTION":14.42832392,"ECCENTRICITY":0.00218697,"INCLINATION":74.0336,"RA_OF_ASC_NODE":91.2034,"ARG_OF_PERICENTER":159.1308,"MEAN_ANOMALY":319.1589,"EPHEMERIS_TYPE":0,"CLASSIFICATION_TYPE":"U","NORAD_CAT_ID":33761,"ELEMENT_SET_NO":999,"REV_AT_EPOCH":89485,"BSTAR":0.00037232141,"MEAN_MOTION_DOT":1.22e-5,"MEAN_MOTION_DDOT":0}]
